{
    "links": {
        "self": "http://www.neowsapp.com/rest/v1/neo/3441847?api_key=iIulBulltgU6a56xZRHN4H3l9WmuAYTsLGpBGhQ2"
    },
    "id": "3441847",
    "neo_reference_id": "3441847",
    "name": "(2008 YO2)",
    "designation": "2008 YO2",
    "nasa_jpl_url": "http://ssd.jpl.nasa.gov/sbdb.cgi?sstr=3441847",
    "absolute_magnitude_h": 25.2,
    "estimated_diameter": {
        "kilometers": {
            "estimated_diameter_min": 0.0242412481,
            "estimated_diameter_max": 0.0542050786
        },
        "meters": {
            "estimated_diameter_min": 24.2412481101,
            "estimated_diameter_max": 54.2050786336
        },
        "miles": {
            "estimated_diameter_min": 0.0150628086,
            "estimated_diameter_max": 0.0336814639
        },
        "feet": {
            "estimated_diameter_min": 79.5316564495,
            "estimated_diameter_max": 177.8381901842
        }
    },
    "is_potentially_hazardous_asteroid": false,
    "close_approach_data": [
        {
            "close_approach_date": "2008-12-25",
            "close_approach_date_full": "2008-Dec-25 20:35",
            "epoch_date_close_approach": 1230237300000,
            "relative_velocity": {
                "kilometers_per_second": "15.2918947269",
                "kilometers_per_hour": "55050.821016903",
                "miles_per_hour": "34206.4393146418"
            },
            "miss_distance": {
                "astronomical": "0.0388482717",
                "lunar": "15.1119776913",
                "kilometers": "5811618.699501279",
                "miles": "3611172.4075804902"
            },
            "orbiting_body": "Earth"
        }
    ],
    "orbital_data": {
        "orbit_id": "7",
        "orbit_determination_date": "2017-04-06 09:01:53",
        "first_observation_date": "2008-12-21",
        "last_observation_date": "2008-12-22",
        "data_arc_in_days": 1,
        "observations_used": 26,
        "orbit_uncertainty": "9",
        "minimum_orbit_intersection": ".00052115",
        "jupiter_tisserand_invariant": "4.039",
        "epoch_osculation": "2454822.5",
        "eccentricity": ".5879881878229147",
        "semi_major_axis": "1.665846020639755",
        "inclination": "1.419740779698963",
        "ascending_node_longitude": "92.79608621186578",
        "orbital_period": "785.3273281228735",
        "perihelion_distance": ".6863482377717718",
        "perihelion_argument": "78.14612889668908",
        "aphelion_distance": "2.645343803507739",
        "perihelion_time": "2454873.155298361565",
        "mean_anomaly": "336.7792272634244",
        "mean_motion": ".4584075800093306",
        "equinox": "J2000",
        "orbit_class": {
            "orbit_class_type": "APO",
            "orbit_class_description": "Near-Earth asteroid orbits which cross the Earth’s orbit similar to that of 1862 Apollo",
            "orbit_class_range": "a (semi-major axis) > 1.0 AU; q (perihelion) < 1.017 AU"
        }
    },
    "is_sentry_object": false
}